0 ONEWEB-0063
1 45448U 20020AA  23281.77671242  .00001294  00000-0  36166-2 0  9991
2 45448  87.8988 216.2149 0001864  86.9040 273.2301 13.11402741173931
0 ONEWEB-0019
1 45449U 20020AB  23281.75070825  .00000185  00000-0  48583-3 0  9995
2 45449  87.8981 216.2193 0001745  74.3776 285.7544 13.11413259173785
0 ONEWEB-0094
1 45450U 20020AC  23281.53861543 -.00000062  00000-0 -19334-3 0  9996
2 45450  87.9197 201.1671 0001969  74.4515 285.6834 13.17652640176904
0 ONEWEB-0087
1 45451U 20020AD  23281.78319395 -.00000317  00000-0 -93149-3 0  9996
2 45451  87.8982 216.2023 0002282  78.6511 281.4873 13.11410158173831
0 ONEWEB-0082
1 45452U 20020AE  23281.78480344 -.00000324  00000-0 -94917-3 0  9992
2 45452  87.8987 216.1886 0002013  72.6544 287.4804 13.11406347173920
0 ONEWEB-0050
1 45453U 20020AF  23281.49856474  .00009463  00000-0  77004-3 0  9991
2 45453  87.9962  92.7032 0022172 262.8502  97.0210 14.99251585193883
0 ONEWEB-0034
1 45454U 20020AG  23281.57541989  .00000471  00000-0  12919-2 0  9996
2 45454  87.8985 216.2480 0002045  78.3199 281.8158 13.11418151173808
0 ONEWEB-0060
1 45455U 20020AH  23281.35463480  .00000554  00000-0  15273-2 0  9990
2 45455  87.8979 216.2918 0002055  80.9655 279.1705 13.11415220173739
