<?xml version="1.0" encoding="UTF-8"?>
<ndm xmlns:xsi="http://www.w3.org/2001/XMLSchema-instance" xsi:noNamespaceSchemaLocation="https://sanaregistry.org/r/ndmxml_unqualified/ndmxml-2.0.0-master-2.0.xsd">
<omm id="CCSDS_OMM_VERS" version="2.0">
<header><CREATION_DATE/><ORIGINATOR/></header><body><segment><metadata><OBJECT_NAME>ONEWEB-0063</OBJECT_NAME><OBJECT_ID>2020-020AA</OBJECT_ID><CENTER_NAME>EARTH</CENTER_NAME><REF_FRAME>TEME</REF_FRAME><TIME_SYSTEM>UTC</TIME_SYSTEM><MEAN_ELEMENT_THEORY>SGP4</MEAN_ELEMENT_THEORY></metadata><data><meanElements><EPOCH>2023-10-08T18:38:27.953088</EPOCH><MEAN_MOTION>13.11402741</MEAN_MOTION><ECCENTRICITY>.0001864</ECCENTRICITY><INCLINATION>87.8988</INCLINATION><RA_OF_ASC_NODE>216.2149</RA_OF_ASC_NODE><ARG_OF_PERICENTER>86.9040</ARG_OF_PERICENTER><MEAN_ANOMALY>273.2301</MEAN_ANOMALY></meanElements><tleParameters><EPHEMERIS_TYPE>0</EPHEMERIS_TYPE><CLASSIFICATION_TYPE>U</CLASSIFICATION_TYPE><NORAD_CAT_ID>45448</NORAD_CAT_ID><ELEMENT_SET_NO>999</ELEMENT_SET_NO><REV_AT_EPOCH>17393</REV_AT_EPOCH><BSTAR>.36166E-2</BSTAR><MEAN_MOTION_DOT>.1294E-4</MEAN_MOTION_DOT><MEAN_MOTION_DDOT>0</MEAN_MOTION_DDOT></tleParameters></data></segment></body></omm>
<omm id="CCSDS_OMM_VERS" version="2.0">
<header><CREATION_DATE/><ORIGINATOR/></header><body><segment><metadata><OBJECT_NAME>ONEWEB-0019</OBJECT_NAME><OBJECT_ID>2020-020AB</OBJECT_ID><CENTER_NAME>EARTH</CENTER_NAME><REF_FRAME>TEME</REF_FRAME><TIME_SYSTEM>UTC</TIME_SYSTEM><MEAN_ELEMENT_THEORY>SGP4</MEAN_ELEMENT_THEORY></metadata><data><meanElements><EPOCH>2023-10-08T18:01:01.192800</EPOCH><MEAN_MOTION>13.11413259</MEAN_MOTION><ECCENTRICITY>.0001745</ECCENTRICITY><INCLINATION>87.8981</INCLINATION><RA_OF_ASC_NODE>216.2193</RA_OF_ASC_NODE><ARG_OF_PERICENTER>74.3776</ARG_OF_PERICENTER><MEAN_ANOMALY>285.7544</MEAN_ANOMALY></meanElements><tleParameters><EPHEMERIS_TYPE>0</EPHEMERIS_TYPE><CLASSIFICATION_TYPE>U</CLASSIFICATION_TYPE><NORAD_CAT_ID>45449</NORAD_CAT_ID><ELEMENT_SET_NO>999</ELEMENT_SET_NO><REV_AT_EPOCH>17378</REV_AT_EPOCH><BSTAR>.48583E-3</BSTAR><MEAN_MOTION_DOT>.185E-5</MEAN_MOTION_DOT><MEAN_MOTION_DDOT>0</MEAN_MOTION_DDOT></tleParameters></data></segment></body></omm>
<omm id="CCSDS_OMM_VERS" version="2.0">
<header><CREATION_DATE/><ORIGINATOR/></header><body><segment><metadata><OBJECT_NAME>ONEWEB-0094</OBJECT_NAME><OBJECT_ID>2020-020AC</OBJECT_ID><CENTER_NAME>EARTH</CENTER_NAME><REF_FRAME>TEME</REF_FRAME><TIME_SYSTEM>UTC</TIME_SYSTEM><MEAN_ELEMENT_THEORY>SGP4</MEAN_ELEMENT_THEORY></metadata><data><meanElements><EPOCH>2023-10-08T12:55:36.373152</EPOCH><MEAN_MOTION>13.17652640</MEAN_MOTION><ECCENTRICITY>.0001969</ECCENTRICITY><INCLINATION>87.9197</INCLINATION><RA_OF_ASC_NODE>201.1671</RA_OF_ASC_NODE><ARG_OF_PERICENTER>74.4515</ARG_OF_PERICENTER><MEAN_ANOMALY>285.6834</MEAN_ANOMALY></meanElements><tleParameters><EPHEMERIS_TYPE>0</EPHEMERIS_TYPE><CLASSIFICATION_TYPE>U</CLASSIFICATION_TYPE><NORAD_CAT_ID>45450</NORAD_CAT_ID><ELEMENT_SET_NO>999</ELEMENT_SET_NO><REV_AT_EPOCH>17690</REV_AT_EPOCH><BSTAR>-.19334E-3</BSTAR><MEAN_MOTION_DOT>-.62E-6</MEAN_MOTION_DOT><MEAN_MOTION_DDOT>0</MEAN_MOTION_DDOT></tleParameters></data></segment></body></omm>
<omm id="CCSDS_OMM_VERS" version="2.0">
<header><CREATION_DATE/><ORIGINATOR/></header><body><segment><metadata><OBJECT_NAME>ONEWEB-0087</OBJECT_NAME><OBJECT_ID>2020-020AD</OBJECT_ID><CENTER_NAME>EARTH</CENTER_NAME><REF_FRAME>TEME</REF_FRAME><TIME_SYSTEM>UTC</TIME_SYSTEM><MEAN_ELEMENT_THEORY>SGP4</MEAN_ELEMENT_THEORY></metadata><data><meanElements><EPOCH>2023-10-08T18:47:47.957280</EPOCH><MEAN_MOTION>13.11410158</MEAN_MOTION><ECCENTRICITY>.0002282</ECCENTRICITY><INCLINATION>87.8982</INCLINATION><RA_OF_ASC_NODE>216.2023</RA_OF_ASC_NODE><ARG_OF_PERICENTER>78.6511</ARG_OF_PERICENTER><MEAN_ANOMALY>281.4873</MEAN_ANOMALY></meanElements><tleParameters><EPHEMERIS_TYPE>0</EPHEMERIS_TYPE><CLASSIFICATION_TYPE>U</CLASSIFICATION_TYPE><NORAD_CAT_ID>45451</NORAD_CAT_ID><ELEMENT_SET_NO>999</ELEMENT_SET_NO><REV_AT_EPOCH>17383</REV_AT_EPOCH><BSTAR>-.93149E-3</BSTAR><MEAN_MOTION_DOT>-.317E-5</MEAN_MOTION_DOT><MEAN_MOTION_DDOT>0</MEAN_MOTION_DDOT></tleParameters></data></segment></body></omm>
<omm id="CCSDS_OMM_VERS" version="2.0">
<header><CREATION_DATE/><ORIGINATOR/></header><body><segment><metadata><OBJECT_NAME>ONEWEB-0082</OBJECT_NAME><OBJECT_ID>2020-020AE</OBJECT_ID><CENTER_NAME>EARTH</CENTER_NAME><REF_FRAME>TEME</REF_FRAME><TIME_SYSTEM>UTC</TIME_SYSTEM><MEAN_ELEMENT_THEORY>SGP4</MEAN_ELEMENT_THEORY></metadata><data><meanElements><EPOCH>2023-10-08T18:50:07.017216</EPOCH><MEAN_MOTION>13.11406347</MEAN_MOTION><ECCENTRICITY>.0002013</ECCENTRICITY><INCLINATION>87.8987</INCLINATION><RA_OF_ASC_NODE>216.1886</RA_OF_ASC_NODE><ARG_OF_PERICENTER>72.6544</ARG_OF_PERICENTER><MEAN_ANOMALY>287.4804</MEAN_ANOMALY></meanElements><tleParameters><EPHEMERIS_TYPE>0</EPHEMERIS_TYPE><CLASSIFICATION_TYPE>U</CLASSIFICATION_TYPE><NORAD_CAT_ID>45452</NORAD_CAT_ID><ELEMENT_SET_NO>999</ELEMENT_SET_NO><REV_AT_EPOCH>17392</REV_AT_EPOCH><BSTAR>-.94917E-3</BSTAR><MEAN_MOTION_DOT>-.324E-5</MEAN_MOTION_DOT><MEAN_MOTION_DDOT>0</MEAN_MOTION_DDOT></tleParameters></data></segment></body></omm>
<omm id="CCSDS_OMM_VERS" version="2.0">
<header><CREATION_DATE/><ORIGINATOR/></header><body><segment><metadata><OBJECT_NAME>ONEWEB-0050</OBJECT_NAME><OBJECT_ID>2020-020AF</OBJECT_ID><CENTER_NAME>EARTH</CENTER_NAME><REF_FRAME>TEME</REF_FRAME><TIME_SYSTEM>UTC</TIME_SYSTEM><MEAN_ELEMENT_THEORY>SGP4</MEAN_ELEMENT_THEORY></metadata><data><meanElements><EPOCH>2023-10-08T11:57:55.993536</EPOCH><MEAN_MOTION>14.99251585</MEAN_MOTION><ECCENTRICITY>.0022172</ECCENTRICITY><INCLINATION>87.9962</INCLINATION><RA_OF_ASC_NODE>92.7032</RA_OF_ASC_NODE><ARG_OF_PERICENTER>262.8502</ARG_OF_PERICENTER><MEAN_ANOMALY>97.0210</MEAN_ANOMALY></meanElements><tleParameters><EPHEMERIS_TYPE>0</EPHEMERIS_TYPE><CLASSIFICATION_TYPE>U</CLASSIFICATION_TYPE><NORAD_CAT_ID>45453</NORAD_CAT_ID><ELEMENT_SET_NO>999</ELEMENT_SET_NO><REV_AT_EPOCH>19388</REV_AT_EPOCH><BSTAR>.77004E-3</BSTAR><MEAN_MOTION_DOT>.9463E-4</MEAN_MOTION_DOT><MEAN_MOTION_DDOT>0</MEAN_MOTION_DDOT></tleParameters></data></segment></body></omm>
<omm id="CCSDS_OMM_VERS" version="2.0">
<header><CREATION_DATE/><ORIGINATOR/></header><body><segment><metadata><OBJECT_NAME>ONEWEB-0034</OBJECT_NAME><OBJECT_ID>2020-020AG</OBJECT_ID><CENTER_NAME>EARTH</CENTER_NAME><REF_FRAME>TEME</REF_FRAME><TIME_SYSTEM>UTC</TIME_SYSTEM><MEAN_ELEMENT_THEORY>SGP4</MEAN_ELEMENT_THEORY></metadata><data><meanElements><EPOCH>2023-10-08T13:48:36.278496</EPOCH><MEAN_MOTION>13.11418151</MEAN_MOTION><ECCENTRICITY>.0002045</ECCENTRICITY><INCLINATION>87.8985</INCLINATION><RA_OF_ASC_NODE>216.2480</RA_OF_ASC_NODE><ARG_OF_PERICENTER>78.3199</ARG_OF_PERICENTER><MEAN_ANOMALY>281.8158</MEAN_ANOMALY></meanElements><tleParameters><EPHEMERIS_TYPE>0</EPHEMERIS_TYPE><CLASSIFICATION_TYPE>U</CLASSIFICATION_TYPE><NORAD_CAT_ID>45454</NORAD_CAT_ID><ELEMENT_SET_NO>999</ELEMENT_SET_NO><REV_AT_EPOCH>17380</REV_AT_EPOCH><BSTAR>.12919E-2</BSTAR><MEAN_MOTION_DOT>.471E-5</MEAN_MOTION_DOT><MEAN_MOTION_DDOT>0</MEAN_MOTION_DDOT></tleParameters></data></segment></body></omm>
<omm id="CCSDS_OMM_VERS" version="2.0">
<header><CREATION_DATE/><ORIGINATOR/></header><body><segment><metadata><OBJECT_NAME>ONEWEB-0060</OBJECT_NAME><OBJECT_ID>2020-020AH</OBJECT_ID><CENTER_NAME>EARTH</CENTER_NAME><REF_FRAME>TEME</REF_FRAME><TIME_SYSTEM>UTC</TIME_SYSTEM><MEAN_ELEMENT_THEORY>SGP4</MEAN_ELEMENT_THEORY></metadata><data><meanElements><EPOCH>2023-10-08T08:30:40.446720</EPOCH><MEAN_MOTION>13.11415220</MEAN_MOTION><ECCENTRICITY>.0002055</ECCENTRICITY><INCLINATION>87.8979</INCLINATION><RA_OF_ASC_NODE>216.2918</RA_OF_ASC_NODE><ARG_OF_PERICENTER>80.9655</ARG_OF_PERICENTER><MEAN_ANOMALY>279.1705</MEAN_ANOMALY></meanElements><tleParameters><EPHEMERIS_TYPE>0</EPHEMERIS_TYPE><CLASSIFICATION_TYPE>U</CLASSIFICATION_TYPE><NORAD_CAT_ID>45455</NORAD_CAT_ID><ELEMENT_SET_NO>999</ELEMENT_SET_NO><REV_AT_EPOCH>17373</REV_AT_EPOCH><BSTAR>.15273E-2</BSTAR><MEAN_MOTION_DOT>.554E-5</MEAN_MOTION_DOT><MEAN_MOTION_DDOT>0</MEAN_MOTION_DDOT></tleParameters></data></segment></body></omm>

</ndm>
